[
  {
    "OBJECT_NAME": "STARLINK-34064",
    "OBJECT_ID": "25110U",
    "EPOCH": "2025-11-11T08:00:03.000384",
    "MEAN_MOTION": 15.30182637,
    "ECCENTRICITY": 9.97e-05,
    "INCLINATION": 53.1575,
    "RA_OF_ASC_NODE": 216.5917,
    "ARG_OF_PERICENTER": 87.6647,
    "MEAN_ANOMALY": 161.8221,
    "EPHEMERIS_TYPE": 0,
    "CLASSIFICATION_TYPE": "U",
    "NORAD_CAT_ID": 64114,
    "ELEMENT_SET_NO": 999,
    "REV_AT_EPOCH": 592,
    "BSTAR": 1.4063e-05,
    "MEAN_MOTION_DOT": 5.7e-07,
    "MEAN_MOTION_DDOT": 0.0,
    "TLE_LINE1": "1 64114U 25110U   25315.33336806  .00000057  00000+0  14063-4 0  9992",
    "TLE_LINE2": "2 64114  53.1575 216.5917 0000997  87.6647 161.8221 15.30182637  5921",
    "COMMENT": "Grouped by shell and plane from TLE"
  },
  {
    "OBJECT_NAME": "STARLINK-34067",
    "OBJECT_ID": "25110V",
    "EPOCH": "2025-11-11T08:00:03.000384",
    "MEAN_MOTION": 15.30176357,
    "ECCENTRICITY": 0.0001759,
    "INCLINATION": 53.1598,
    "RA_OF_ASC_NODE": 216.303,
    "ARG_OF_PERICENTER": 89.3277,
    "MEAN_ANOMALY": 305.5728,
    "EPHEMERIS_TYPE": 0,
    "CLASSIFICATION_TYPE": "U",
    "NORAD_CAT_ID": 64115,
    "ELEMENT_SET_NO": 999,
    "REV_AT_EPOCH": 576,
    "BSTAR": 0.00023153000000000003,
    "MEAN_MOTION_DOT": 6.499e-05,
    "MEAN_MOTION_DDOT": 0.0,
    "TLE_LINE1": "1 64115U 25110V   25315.33336806  .00006499  00000+0  23153-3 0  9998",
    "TLE_LINE2": "2 64115  53.1598 216.3030 0001759  89.3277 305.5728 15.30176357  5769",
    "COMMENT": "Grouped by shell and plane from TLE"
  },
  {
    "OBJECT_NAME": "STARLINK-34080",
    "OBJECT_ID": "25110W",
    "EPOCH": "2025-11-11T08:00:03.000384",
    "MEAN_MOTION": 15.30999244,
    "ECCENTRICITY": 0.0001306,
    "INCLINATION": 53.1597,
    "RA_OF_ASC_NODE": 216.3423,
    "ARG_OF_PERICENTER": 85.9141,
    "MEAN_ANOMALY": 289.0099,
    "EPHEMERIS_TYPE": 0,
    "CLASSIFICATION_TYPE": "U",
    "NORAD_CAT_ID": 64116,
    "ELEMENT_SET_NO": 999,
    "REV_AT_EPOCH": 581,
    "BSTAR": 0.00077484,
    "MEAN_MOTION_DOT": 0.00023236,
    "MEAN_MOTION_DDOT": 0.0,
    "TLE_LINE1": "1 64116U 25110W   25315.33336806  .00023236  00000+0  77484-3 0  9993",
    "TLE_LINE2": "2 64116  53.1597 216.3423 0001306  85.9141 289.0099 15.30999244  5816",
    "COMMENT": "Grouped by shell and plane from TLE"
  },
  {
    "OBJECT_NAME": "STARLINK-34122",
    "OBJECT_ID": "25110X",
    "EPOCH": "2025-11-11T08:00:03.000384",
    "MEAN_MOTION": 15.30178937,
    "ECCENTRICITY": 0.0001291,
    "INCLINATION": 53.1598,
    "RA_OF_ASC_NODE": 216.2681,
    "ARG_OF_PERICENTER": 83.1344,
    "MEAN_ANOMALY": 329.2162,
    "EPHEMERIS_TYPE": 0,
    "CLASSIFICATION_TYPE": "U",
    "NORAD_CAT_ID": 64117,
    "ELEMENT_SET_NO": 999,
    "REV_AT_EPOCH": 591,
    "BSTAR": 0.00014578,
    "MEAN_MOTION_DOT": 3.958e-05,
    "MEAN_MOTION_DDOT": 0.0,
    "TLE_LINE1": "1 64117U 25110X   25315.33336806  .00003958  00000+0  14578-3 0  9998",
    "TLE_LINE2": "2 64117  53.1598 216.2681 0001291  83.1344 329.2162 15.30178937  5918",
    "COMMENT": "Grouped by shell and plane from TLE"
  },
  {
    "OBJECT_NAME": "STARLINK-33964",
    "OBJECT_ID": "25110Y",
    "EPOCH": "2025-11-11T08:00:03.000384",
    "MEAN_MOTION": 15.30177968,
    "ECCENTRICITY": 0.0001131,
    "INCLINATION": 53.1597,
    "RA_OF_ASC_NODE": 216.4062,
    "ARG_OF_PERICENTER": 88.8507,
    "MEAN_ANOMALY": 253.7056,
    "EPHEMERIS_TYPE": 0,
    "CLASSIFICATION_TYPE": "U",
    "NORAD_CAT_ID": 64118,
    "ELEMENT_SET_NO": 999,
    "REV_AT_EPOCH": 591,
    "BSTAR": 0.00011027000000000001,
    "MEAN_MOTION_DOT": 2.906e-05,
    "MEAN_MOTION_DDOT": 0.0,
    "TLE_LINE1": "1 64118U 25110Y   25315.33336806  .00002906  00000+0  11027-3 0  9997",
    "TLE_LINE2": "2 64118  53.1597 216.4062 0001131  88.8507 253.7056 15.30177968  5915",
    "COMMENT": "Grouped by shell and plane from TLE"
  },
  {
    "OBJECT_NAME": "STARLINK-34160",
    "OBJECT_ID": "25110Z",
    "EPOCH": "2025-11-11T06:07:47.548416",
    "MEAN_MOTION": 15.30269262,
    "ECCENTRICITY": 0.0001909,
    "INCLINATION": 53.1596,
    "RA_OF_ASC_NODE": 216.5946,
    "ARG_OF_PERICENTER": 96.6164,
    "MEAN_ANOMALY": 263.5054,
    "EPHEMERIS_TYPE": 0,
    "CLASSIFICATION_TYPE": "U",
    "NORAD_CAT_ID": 64119,
    "ELEMENT_SET_NO": 999,
    "REV_AT_EPOCH": 2775,
    "BSTAR": 0.0017801,
    "MEAN_MOTION_DOT": 0.00052851,
    "MEAN_MOTION_DDOT": 0.0,
    "TLE_LINE1": "1 64119U 25110Z   25315.25541144  .00052851  00000+0  17801-2 0  9991",
    "TLE_LINE2": "2 64119  53.1596 216.5946 0001909  96.6164 263.5054 15.30269262 27758",
    "COMMENT": "Grouped by shell and plane from TLE"
  },
  {
    "OBJECT_NAME": "STARLINK-34151",
    "OBJECT_ID": "25110AA",
    "EPOCH": "2025-11-11T02:46:10.333632",
    "MEAN_MOTION": 15.3019704,
    "ECCENTRICITY": 0.0001458,
    "INCLINATION": 53.1591,
    "RA_OF_ASC_NODE": 217.8524,
    "ARG_OF_PERICENTER": 82.5731,
    "MEAN_ANOMALY": 277.5436,
    "EPHEMERIS_TYPE": 0,
    "CLASSIFICATION_TYPE": "U",
    "NORAD_CAT_ID": 64120,
    "ELEMENT_SET_NO": 999,
    "REV_AT_EPOCH": 2772,
    "BSTAR": 0.00095969,
    "MEAN_MOTION_DOT": 0.00028169,
    "MEAN_MOTION_DDOT": 0.0,
    "TLE_LINE1": "1 64120U 25110AA  25315.11539738  .00028169  00000+0  95969-3 0  9991",
    "TLE_LINE2": "2 64120  53.1591 217.8524 0001458  82.5731 277.5436 15.30197040 27724",
    "COMMENT": "Grouped by shell and plane from TLE"
  },
  {
    "OBJECT_NAME": "STARLINK-34189",
    "OBJECT_ID": "25110AB",
    "EPOCH": "2025-11-11T04:15:39.982176",
    "MEAN_MOTION": 15.30238178,
    "ECCENTRICITY": 0.0001314,
    "INCLINATION": 53.1572,
    "RA_OF_ASC_NODE": 217.5291,
    "ARG_OF_PERICENTER": 105.005,
    "MEAN_ANOMALY": 255.1097,
    "EPHEMERIS_TYPE": 0,
    "CLASSIFICATION_TYPE": "U",
    "NORAD_CAT_ID": 64121,
    "ELEMENT_SET_NO": 999,
    "REV_AT_EPOCH": 2773,
    "BSTAR": 0.001573,
    "MEAN_MOTION_DOT": 0.00046577,
    "MEAN_MOTION_DDOT": 0.0,
    "TLE_LINE1": "1 64121U 25110AB  25315.17754609  .00046577  00000+0  15730-2 0  9994",
    "TLE_LINE2": "2 64121  53.1572 217.5291 0001314 105.0050 255.1097 15.30238178 27732",
    "COMMENT": "Grouped by shell and plane from TLE"
  },
  {
    "OBJECT_NAME": "STARLINK-33991",
    "OBJECT_ID": "25110AC",
    "EPOCH": "2025-11-11T06:01:42.609504",
    "MEAN_MOTION": 15.30237339,
    "ECCENTRICITY": 0.0001735,
    "INCLINATION": 53.1593,
    "RA_OF_ASC_NODE": 216.5661,
    "ARG_OF_PERICENTER": 90.9728,
    "MEAN_ANOMALY": 269.1472,
    "EPHEMERIS_TYPE": 0,
    "CLASSIFICATION_TYPE": "U",
    "NORAD_CAT_ID": 64122,
    "ELEMENT_SET_NO": 999,
    "REV_AT_EPOCH": 2774,
    "BSTAR": 0.0013968,
    "MEAN_MOTION_DOT": 0.00041287,
    "MEAN_MOTION_DDOT": 0.0,
    "TLE_LINE1": "1 64122U 25110AC  25315.25118761  .00041287  00000+0  13968-2 0  9991",
    "TLE_LINE2": "2 64122  53.1593 216.5661 0001735  90.9728 269.1472 15.30237339 27748",
    "COMMENT": "Grouped by shell and plane from TLE"
  },
  {
    "OBJECT_NAME": "STARLINK-34771",
    "OBJECT_ID": "25167A",
    "EPOCH": "2025-11-11T03:23:23.648352",
    "MEAN_MOTION": 15.3963895,
    "ECCENTRICITY": 0.0001336,
    "INCLINATION": 53.1578,
    "RA_OF_ASC_NODE": 216.3577,
    "ARG_OF_PERICENTER": 87.8214,
    "MEAN_ANOMALY": 272.2944,
    "EPHEMERIS_TYPE": 0,
    "CLASSIFICATION_TYPE": "U",
    "NORAD_CAT_ID": 65078,
    "ELEMENT_SET_NO": 999,
    "REV_AT_EPOCH": 1534,
    "BSTAR": 0.0016313,
    "MEAN_MOTION_DOT": 0.00065452,
    "MEAN_MOTION_DDOT": 0.0,
    "TLE_LINE1": "1 65078U 25167A   25315.14124593  .00065452  00000+0  16313-2 0  9999",
    "TLE_LINE2": "2 65078  53.1578 216.3577 0001336  87.8214 272.2944 15.39638950 15343",
    "COMMENT": "Grouped by shell and plane from TLE"
  },
  {
    "OBJECT_NAME": "STARLINK-34634",
    "OBJECT_ID": "25167B",
    "EPOCH": "2025-11-11T03:36:45.817920",
    "MEAN_MOTION": 15.39653424,
    "ECCENTRICITY": 0.000119,
    "INCLINATION": 53.1577,
    "RA_OF_ASC_NODE": 216.418,
    "ARG_OF_PERICENTER": 93.8249,
    "MEAN_ANOMALY": 266.2892,
    "EPHEMERIS_TYPE": 0,
    "CLASSIFICATION_TYPE": "U",
    "NORAD_CAT_ID": 65079,
    "ELEMENT_SET_NO": 999,
    "REV_AT_EPOCH": 1534,
    "BSTAR": 0.0019654,
    "MEAN_MOTION_DOT": 0.00079121,
    "MEAN_MOTION_DDOT": 0.0,
    "TLE_LINE1": "1 65079U 25167B   25315.15053030  .00079121  00000+0  19654-2 0  9997",
    "TLE_LINE2": "2 65079  53.1577 216.4180 0001190  93.8249 266.2892 15.39653424 15345",
    "COMMENT": "Grouped by shell and plane from TLE"
  },
  {
    "OBJECT_NAME": "STARLINK-34267",
    "OBJECT_ID": "25167C",
    "EPOCH": "2025-11-11T03:10:00.812640",
    "MEAN_MOTION": 15.3965179,
    "ECCENTRICITY": 7.84e-05,
    "INCLINATION": 53.1582,
    "RA_OF_ASC_NODE": 216.301,
    "ARG_OF_PERICENTER": 76.6022,
    "MEAN_ANOMALY": 283.507,
    "EPHEMERIS_TYPE": 0,
    "CLASSIFICATION_TYPE": "U",
    "NORAD_CAT_ID": 65080,
    "ELEMENT_SET_NO": 999,
    "REV_AT_EPOCH": 1656,
    "BSTAR": 0.0011494,
    "MEAN_MOTION_DOT": 0.00045899,
    "MEAN_MOTION_DDOT": 0.0,
    "TLE_LINE1": "1 65080U 25167C   25315.13195385  .00045899  00000+0  11494-2 0  9996",
    "TLE_LINE2": "2 65080  53.1582 216.3010 0000784  76.6022 283.5070 15.39651790 16569",
    "COMMENT": "Grouped by shell and plane from TLE"
  },
  {
    "OBJECT_NAME": "STARLINK-34561",
    "OBJECT_ID": "25167D",
    "EPOCH": "2025-11-11T03:16:42.068928",
    "MEAN_MOTION": 15.3965267,
    "ECCENTRICITY": 0.0001327,
    "INCLINATION": 53.1583,
    "RA_OF_ASC_NODE": 216.3285,
    "ARG_OF_PERICENTER": 97.0458,
    "MEAN_ANOMALY": 263.0698,
    "EPHEMERIS_TYPE": 0,
    "CLASSIFICATION_TYPE": "U",
    "NORAD_CAT_ID": 65081,
    "ELEMENT_SET_NO": 999,
    "REV_AT_EPOCH": 1659,
    "BSTAR": 0.001281,
    "MEAN_MOTION_DOT": 0.00051241,
    "MEAN_MOTION_DDOT": 0.0,
    "TLE_LINE1": "1 65081U 25167D   25315.13659802  .00051241  00000+0  12810-2 0  9997",
    "TLE_LINE2": "2 65081  53.1583 216.3285 0001327  97.0458 263.0698 15.39652670 16599",
    "COMMENT": "Grouped by shell and plane from TLE"
  }
]